{
  "type": "FeatureCollection",
  "features": [
    {
      "type": "Feature",
      "properties": {
        "norad_id": 42939,
        "name": "COSMOS 2522 (752)",
        "group": "gnss",
        "lat": 17.310624708352588,
        "lon": -152.8904843994851,
        "alt_km": 19143.04248204549,
        "timestamp": "2025-12-08T03:50:07.241065+00:00",
        "meta_object_name": "COSMOS 2522 (752)",
        "meta_object_id": "2017-055A",
        "meta_epoch": "2025-12-02T23:20:47.282208",
        "meta_mean_motion": 2.1310185,
        "meta_eccentricity": 0.00065327,
        "meta_inclination": 64.0758,
        "meta_ra_of_asc_node": 198.5618,
        "meta_arg_of_pericenter": 226.0683,
        "meta_mean_anomaly": 133.9743,
        "meta_ephemeris_type": 0,
        "meta_classification_type": "U",
        "meta_norad_cat_id": 42939,
        "meta_element_set_no": 999,
        "meta_rev_at_epoch": 6379,
        "meta_bstar": 0,
        "meta_mean_motion_dot": 1.07e-06,
        "meta_mean_motion_ddot": 0,
        "tle_line1": "1 42939U 17055A   25336.97276947  .00000107  00000+0  00000+0 0  9991",
        "tle_line2": "2 42939  64.0758 198.5618 0006532 226.0683 133.9743  2.13101850 63796"
      },
      "geometry": {
        "type": "Point",
        "coordinates": [
          -152.8904843994851,
          17.310624708352588
        ]
      }
    },
    {
      "type": "Feature",
      "properties": {
        "norad_id": 42965,
        "name": "QZS-4 (QZSS/PRN 195)",
        "group": "gnss",
        "lat": -37.911219478933916,
        "lon": -81.18703734795814,
        "alt_km": 32720.123464996457,
        "timestamp": "2025-12-08T03:50:07.241077+00:00",
        "meta_object_name": "QZS-4 (QZSS/PRN 195)",
        "meta_object_id": "2017-062A",
        "meta_epoch": "2025-12-06T21:07:43.800384",
        "meta_mean_motion": 1.00253739,
        "meta_eccentricity": 0.07524502,
        "meta_inclination": 40.2288,
        "meta_ra_of_asc_node": 345.9456,
        "meta_arg_of_pericenter": 271.3923,
        "meta_mean_anomaly": 272.3694,
        "meta_ephemeris_type": 0,
        "meta_classification_type": "U",
        "meta_norad_cat_id": 42965,
        "meta_element_set_no": 999,
        "meta_rev_at_epoch": 2987,
        "meta_bstar": 0,
        "meta_mean_motion_dot": -3.44e-06,
        "meta_mean_motion_ddot": 0,
        "tle_line1": "1 42965U 17062A   25340.88036806 -.00000344  00000+0  00000+0 0  9995",
        "tle_line2": "2 42965  40.2288 345.9456 0752450 271.3923 272.3694  1.00253739 29877"
      },
      "geometry": {
        "type": "Point",
        "coordinates": [
          -81.18703734795814,
          -37.911219478933916
        ]
      }
    },
    {
      "type": "Feature",
      "properties": {
        "norad_id": 43001,
        "name": "BEIDOU-3 M1 (C19)",
        "group": "gnss",
        "lat": 44.708299884029856,
        "lon": -151.45262400474934,
        "alt_km": 21547.781712132462,
        "timestamp": "2025-12-08T03:50:07.241090+00:00",
        "meta_object_name": "BEIDOU-3 M1 (C19)",
        "meta_object_id": "2017-069A",
        "meta_epoch": "2025-12-06T08:47:12.602112",
        "meta_mean_motion": 1.86230764,
        "meta_eccentricity": 0.00089894,
        "meta_inclination": 56.5217,
        "meta_ra_of_asc_node": 69.4444,
        "meta_arg_of_pericenter": 303.7678,
        "meta_mean_anomaly": 56.1608,
        "meta_ephemeris_type": 0,
        "meta_classification_type": "U",
        "meta_norad_cat_id": 43001,
        "meta_element_set_no": 999,
        "meta_rev_at_epoch": 5501,
        "meta_bstar": 0,
        "meta_mean_motion_dot": -4.5e-07,
        "meta_mean_motion_ddot": 0,
        "tle_line1": "1 43001U 17069A   25340.36611808 -.00000045  00000+0  00000+0 0  9996",
        "tle_line2": "2 43001  56.5217  69.4444 0008989 303.7678  56.1608  1.86230764 55019"
      },
      "geometry": {
        "type": "Point",
        "coordinates": [
          -151.45262400474934,
          44.708299884029856
        ]
      }
    },
    {
      "type": "Feature",
      "properties": {
        "norad_id": 43002,
        "name": "BEIDOU-3 M2 (C20)",
        "group": "gnss",
        "lat": 13.379903667881292,
        "lon": -119.61153321672559,
        "alt_km": 21543.767600680138,
        "timestamp": "2025-12-08T03:50:07.241101+00:00",
        "meta_object_name": "BEIDOU-3 M2 (C20)",
        "meta_object_id": "2017-069B",
        "meta_epoch": "2025-12-06T07:18:26.076672",
        "meta_mean_motion": 1.8623066,
        "meta_eccentricity": 0.00062871,
        "meta_inclination": 56.5209,
        "meta_ra_of_asc_node": 69.4828,
        "meta_arg_of_pericenter": 331.4917,
        "meta_mean_anomaly": 28.4877,
        "meta_ephemeris_type": 0,
        "meta_classification_type": "U",
        "meta_norad_cat_id": 43002,
        "meta_element_set_no": 999,
        "meta_rev_at_epoch": 5500,
        "meta_bstar": 0,
        "meta_mean_motion_dot": -4.6e-07,
        "meta_mean_motion_ddot": 0,
        "tle_line1": "1 43002U 17069B   25340.30446848 -.00000046  00000+0  00000+0 0  9992",
        "tle_line2": "2 43002  56.5209  69.4828 0006287 331.4917  28.4877  1.86230660 55004"
      },
      "geometry": {
        "type": "Point",
        "coordinates": [
          -119.61153321672559,
          13.379903667881292
        ]
      }
    },
    {
      "type": "Feature",
      "properties": {
        "norad_id": 43055,
        "name": "GSAT0215 (GALILEO 19)",
        "group": "gnss",
        "lat": -36.857588602039115,
        "lon": 78.24837458734697,
        "alt_km": 23219.031155047513,
        "timestamp": "2025-12-08T03:50:07.241111+00:00",
        "meta_object_name": "GSAT0215 (GALILEO 19)",
        "meta_object_id": "2017-079A",
        "meta_epoch": "2025-12-06T00:43:24.455424",
        "meta_mean_motion": 1.70473755,
        "meta_eccentricity": 0.00048437,
        "meta_inclination": 55.1369,
        "meta_ra_of_asc_node": 226.8228,
        "meta_arg_of_pericenter": 284.5496,
        "meta_mean_anomaly": 75.4946,
        "meta_ephemeris_type": 0,
        "meta_classification_type": "U",
        "meta_norad_cat_id": 43055,
        "meta_element_set_no": 999,
        "meta_rev_at_epoch": 4969,
        "meta_bstar": 0,
        "meta_mean_motion_dot": 3.4e-07,
        "meta_mean_motion_ddot": 0,
        "tle_line1": "1 43055U 17079A   25340.03014416  .00000034  00000+0  00000+0 0  9999",
        "tle_line2": "2 43055  55.1369 226.8228 0004843 284.5496  75.4946  1.70473755 49697"
      },
      "geometry": {
        "type": "Point",
        "coordinates": [
          78.24837458734697,
          -36.857588602039115
        ]
      }
    },
    {
      "type": "Feature",
      "properties": {
        "norad_id": 43056,
        "name": "GSAT0216 (GALILEO 20)",
        "group": "gnss",
        "lat": 37.69979661413513,
        "lon": -100.65328744628604,
        "alt_km": 23217.664050471005,
        "timestamp": "2025-12-08T03:50:07.241122+00:00",
        "meta_object_name": "GSAT0216 (GALILEO 20)",
        "meta_object_id": "2017-079B",
        "meta_epoch": "2025-12-06T21:47:45.694464",
        "meta_mean_motion": 1.70473871,
        "meta_eccentricity": 0.00025337,
        "meta_inclination": 55.1324,
        "meta_ra_of_asc_node": 226.7984,
        "meta_arg_of_pericenter": 317.6549,
        "meta_mean_anomaly": 42.4219,
        "meta_ephemeris_type": 0,
        "meta_classification_type": "U",
        "meta_norad_cat_id": 43056,
        "meta_element_set_no": 999,
        "meta_rev_at_epoch": 4972,
        "meta_bstar": 0,
        "meta_mean_motion_dot": 2.8e-07,
        "meta_mean_motion_ddot": 0,
        "tle_line1": "1 43056U 17079B   25340.90816776  .00000028  00000+0  00000+0 0  9998",
        "tle_line2": "2 43056  55.1324 226.7984 0002533 317.6549  42.4219  1.70473871 49728"
      },
      "geometry": {
        "type": "Point",
        "coordinates": [
          -100.65328744628604,
          37.69979661413513
        ]
      }
    },
    {
      "type": "Feature",
      "properties": {
        "norad_id": 43057,
        "name": "GSAT0217 (GALILEO 21)",
        "group": "gnss",
        "lat": -55.047023882916875,
        "lon": 141.47475857124618,
        "alt_km": 23225.12457284328,
        "timestamp": "2025-12-08T03:50:07.241133+00:00",
        "meta_object_name": "GSAT0217 (GALILEO 21)",
        "meta_object_id": "2017-079C",
        "meta_epoch": "2025-12-05T22:56:13.502976",
        "meta_mean_motion": 1.70473847,
        "meta_eccentricity": 0.00027948,
        "meta_inclination": 55.1308,
        "meta_ra_of_asc_node": 226.8227,
        "meta_arg_of_pericenter": 341.4584,
        "meta_mean_anomaly": 18.6294,
        "meta_ephemeris_type": 0,
        "meta_classification_type": "U",
        "meta_norad_cat_id": 43057,
        "meta_element_set_no": 999,
        "meta_rev_at_epoch": 4969,
        "meta_bstar": 0,
        "meta_mean_motion_dot": 3.5e-07,
        "meta_mean_motion_ddot": 0,
        "tle_line1": "1 43057U 17079C   25339.95571184  .00000035  00000+0  00000+0 0  9991",
        "tle_line2": "2 43057  55.1308 226.8227 0002794 341.4584  18.6294  1.70473847 49692"
      },
      "geometry": {
        "type": "Point",
        "coordinates": [
          141.47475857124618,
          -55.047023882916875
        ]
      }
    }
  ]
}